{
  "type": "FeatureCollection",
  "features": [
    {
      "type": "Feature",
      "properties": {
        "norad_id": 35614,
        "name": "COSMOS 2251 DEB",
        "group": "cosmos-2251-debris",
        "lat": 45.4832450363867,
        "lon": 147.760743827676,
        "alt_km": 647.3646923326378,
        "timestamp": "2025-12-03T19:33:07.373653+00:00",
        "meta_object_name": "COSMOS 2251 DEB",
        "meta_object_id": "1993-036ANH",
        "meta_epoch": "2025-11-28T17:49:08.774688",
        "meta_mean_motion": 14.66804035,
        "meta_eccentricity": 0.0076739,
        "meta_inclination": 73.9598,
        "meta_ra_of_asc_node": 354.6008,
        "meta_arg_of_pericenter": 212.3283,
        "meta_mean_anomaly": 147.3173,
        "meta_ephemeris_type": 0,
        "meta_classification_type": "U",
        "meta_norad_cat_id": 35614,
        "meta_element_set_no": 999,
        "meta_rev_at_epoch": 87524,
        "meta_bstar": 0.00086232481,
        "meta_mean_motion_dot": 4.997e-05,
        "meta_mean_motion_ddot": 0,
        "tle_line1": "1 35614U 93036ANH 25332.74246267  .00004997  00000+0  86232-3 0  9995",
        "tle_line2": "2 35614  73.9598 354.6008 0076739 212.3283 147.3173 14.66804035875240"
      },
      "geometry": {
        "type": "Point",
        "coordinates": [
          147.760743827676,
          45.4832450363867
        ]
      }
    },
    {
      "type": "Feature",
      "properties": {
        "norad_id": 35645,
        "name": "COSMOS 2251 DEB",
        "group": "cosmos-2251-debris",
        "lat": -1.3020590099747023,
        "lon": -75.17892929757338,
        "alt_km": 736.3971504498331,
        "timestamp": "2025-12-03T19:33:07.373663+00:00",
        "meta_object_name": "COSMOS 2251 DEB",
        "meta_object_id": "1993-036ANL",
        "meta_epoch": "2025-12-01T15:12:41.067360",
        "meta_mean_motion": 14.45294467,
        "meta_eccentricity": 0.00693993,
        "meta_inclination": 73.964,
        "meta_ra_of_asc_node": 108.5275,
        "meta_arg_of_pericenter": 267.6701,
        "meta_mean_anomaly": 91.651,
        "meta_ephemeris_type": 0,
        "meta_classification_type": "U",
        "meta_norad_cat_id": 35645,
        "meta_element_set_no": 999,
        "meta_rev_at_epoch": 86611,
        "meta_bstar": 0.0022107239,
        "meta_mean_motion_dot": 7.975e-05,
        "meta_mean_motion_ddot": 0,
        "tle_line1": "1 35645U 93036ANL 25335.63380865  .00007975  00000+0  22107-2 0  9992",
        "tle_line2": "2 35645  73.9640 108.5275 0069399 267.6701  91.6510 14.45294467866117"
      },
      "geometry": {
        "type": "Point",
        "coordinates": [
          -75.17892929757338,
          -1.3020590099747023
        ]
      }
    },
    {
      "type": "Feature",
      "properties": {
        "norad_id": 35646,
        "name": "COSMOS 2251 DEB",
        "group": "cosmos-2251-debris",
        "lat": -46.31231687413924,
        "lon": -92.17575802663957,
        "alt_km": 870.605196308753,
        "timestamp": "2025-12-03T19:33:07.373673+00:00",
        "meta_object_name": "COSMOS 2251 DEB",
        "meta_object_id": "1993-036ANM",
        "meta_epoch": "2025-11-30T17:47:23.483328",
        "meta_mean_motion": 13.40777703,
        "meta_eccentricity": 0.04579187,
        "meta_inclination": 73.8717,
        "meta_ra_of_asc_node": 75.0665,
        "meta_arg_of_pericenter": 187.2005,
        "meta_mean_anomaly": 328.3577,
        "meta_ephemeris_type": 0,
        "meta_classification_type": "U",
        "meta_norad_cat_id": 35646,
        "meta_element_set_no": 999,
        "meta_rev_at_epoch": 81697,
        "meta_bstar": 0.001266768,
        "meta_mean_motion_dot": 1.273e-05,
        "meta_mean_motion_ddot": 0,
        "tle_line1": "1 35646U 93036ANM 25334.74124402  .00001273  00000+0  12668-2 0  9993",
        "tle_line2": "2 35646  73.8717  75.0665 0457918 187.2005 328.3577 13.40777703816970"
      },
      "geometry": {
        "type": "Point",
        "coordinates": [
          -92.17575802663957,
          -46.31231687413924
        ]
      }
    },
    {
      "type": "Feature",
      "properties": {
        "norad_id": 35647,
        "name": "COSMOS 2251 DEB",
        "group": "cosmos-2251-debris",
        "lat": -44.6481916563363,
        "lon": -65.2686088225581,
        "alt_km": 758.3975514821605,
        "timestamp": "2025-12-03T19:33:07.373683+00:00",
        "meta_object_name": "COSMOS 2251 DEB",
        "meta_object_id": "1993-036ANN",
        "meta_epoch": "2025-11-30T05:16:45.601536",
        "meta_mean_motion": 14.43522503,
        "meta_eccentricity": 0.00448795,
        "meta_inclination": 74.0228,
        "meta_ra_of_asc_node": 317.854,
        "meta_arg_of_pericenter": 60.3211,
        "meta_mean_anomaly": 300.2402,
        "meta_ephemeris_type": 0,
        "meta_classification_type": "U",
        "meta_norad_cat_id": 35647,
        "meta_element_set_no": 999,
        "meta_rev_at_epoch": 67483,
        "meta_bstar": 0.00078586372,
        "meta_mean_motion_dot": 2.667e-05,
        "meta_mean_motion_ddot": 0,
        "tle_line1": "1 35647U 93036ANN 25334.21997224  .00002667  00000+0  78586-3 0  9996",
        "tle_line2": "2 35647  74.0228 317.8540 0044879  60.3211 300.2402 14.43522503674831"
      },
      "geometry": {
        "type": "Point",
        "coordinates": [
          -65.2686088225581,
          -44.6481916563363
        ]
      }
    },
    {
      "type": "Feature",
      "properties": {
        "norad_id": 35650,
        "name": "COSMOS 2251 DEB",
        "group": "cosmos-2251-debris",
        "lat": -67.3927424507874,
        "lon": -6.844291513630128,
        "alt_km": 635.7326924022318,
        "timestamp": "2025-12-03T19:33:07.373693+00:00",
        "meta_object_name": "COSMOS 2251 DEB",
        "meta_object_id": "1993-036ANR",
        "meta_epoch": "2025-12-03T03:49:53.171616",
        "meta_mean_motion": 14.83206379,
        "meta_eccentricity": 0.00144518,
        "meta_inclination": 74.0473,
        "meta_ra_of_asc_node": 37.8389,
        "meta_arg_of_pericenter": 91.0961,
        "meta_mean_anomaly": 299.114,
        "meta_ephemeris_type": 0,
        "meta_classification_type": "U",
        "meta_norad_cat_id": 35650,
        "meta_element_set_no": 999,
        "meta_rev_at_epoch": 87492,
        "meta_bstar": 0.0022586801,
        "meta_mean_motion_dot": 0.000185,
        "meta_mean_motion_ddot": 0,
        "tle_line1": "1 35650U 93036ANR 25337.15964319  .00018500  00000+0  22587-2 0  9997",
        "tle_line2": "2 35650  74.0473  37.8389 0014451  91.0961 299.1140 14.83206379874924"
      },
      "geometry": {
        "type": "Point",
        "coordinates": [
          -6.844291513630128,
          -67.3927424507874
        ]
      }
    },
    {
      "type": "Feature",
      "properties": {
        "norad_id": 35660,
        "name": "COSMOS 2251 DEB",
        "group": "cosmos-2251-debris",
        "lat": -37.96418043108352,
        "lon": -17.109091819901934,
        "alt_km": 729.7757834269378,
        "timestamp": "2025-12-03T19:33:07.373703+00:00",
        "meta_object_name": "COSMOS 2251 DEB",
        "meta_object_id": "1993-036APB",
        "meta_epoch": "2025-11-30T04:59:11.152608",
        "meta_mean_motion": 14.49858309,
        "meta_eccentricity": 0.00181724,
        "meta_inclination": 74.0397,
        "meta_ra_of_asc_node": 156.7551,
        "meta_arg_of_pericenter": 306.9367,
        "meta_mean_anomaly": 174.3672,
        "meta_ephemeris_type": 0,
        "meta_classification_type": "U",
        "meta_norad_cat_id": 35660,
        "meta_element_set_no": 999,
        "meta_rev_at_epoch": 65689,
        "meta_bstar": 0.00042239347,
        "meta_mean_motion_dot": 1.607e-05,
        "meta_mean_motion_ddot": 0,
        "tle_line1": "1 35660U 93036APB 25334.20776797  .00001607  00000+0  42239-3 0  9999",
        "tle_line2": "2 35660  74.0397 156.7551 0018172 306.9367 174.3672 14.49858309656890"
      },
      "geometry": {
        "type": "Point",
        "coordinates": [
          -17.109091819901934,
          -37.96418043108352
        ]
      }
    },
    {
      "type": "Feature",
      "properties": {
        "norad_id": 35661,
        "name": "COSMOS 2251 DEB",
        "group": "cosmos-2251-debris",
        "lat": 53.62500953134924,
        "lon": -105.38954239036727,
        "alt_km": 593.5800809887978,
        "timestamp": "2025-12-03T19:33:07.373713+00:00",
        "meta_object_name": "COSMOS 2251 DEB",
        "meta_object_id": "1993-036APC",
        "meta_epoch": "2025-12-01T15:17:54.099744",
        "meta_mean_motion": 14.86228294,
        "meta_eccentricity": 0.00894294,
        "meta_inclination": 74.0123,
        "meta_ra_of_asc_node": 101.8533,
        "meta_arg_of_pericenter": 208.6797,
        "meta_mean_anomaly": 150.945,
        "meta_ephemeris_type": 0,
        "meta_classification_type": "U",
        "meta_norad_cat_id": 35661,
        "meta_element_set_no": 999,
        "meta_rev_at_epoch": 87703,
        "meta_bstar": 0.0012388204,
        "meta_mean_motion_dot": 0.00011691,
        "meta_mean_motion_ddot": 0,
        "tle_line1": "1 35661U 93036APC 25335.63743171  .00011691  00000+0  12388-2 0  9993",
        "tle_line2": "2 35661  74.0123 101.8533 0089429 208.6797 150.9450 14.86228294877037"
      },
      "geometry": {
        "type": "Point",
        "coordinates": [
          -105.38954239036727,
          53.62500953134924
        ]
      }
    }
  ]
}